STARLINK-1090
1 44968U 20001BG  26061.66670139  .00125514  00000+0  77274-2 0  9993
2 44968  53.0608 338.1373 0000644  81.9129 312.6415 15.09017732  5795
STARLINK-1184
1 45098U 20006BG  26061.31937997  .00004295  00000+0  27981-3 0  9996
2 45098  53.0524 278.6928 0006461 114.9163 245.2500 15.09888005335925
STARLINK-1276
1 45368U 20019J   26061.58556547  .00001815  00000+0  14071-3 0  9998
2 45368  53.0553 198.5086 0000959  90.6607 269.4492 15.06400309328666
STARLINK-1451
1 45668U 20035M   26061.39922790  .00025707  00000+0  15934-2 0  9999
2 45668  53.0525  98.9666 0001363 354.9780   5.1197 15.09609553317641
STARLINK-1417
1 45693U 20035AN  26061.32821147  .00030490  00000+0  17641-2 0  9996
2 45693  53.0504  87.6623 0002532 217.1828 142.8989 15.12020699317781
STARLINK-1403
1 45701U 20035AW  26061.57541428  .00001432  00000+0  11497-3 0  9992
2 45701  53.0552  68.5566 0001521  89.6416 270.4748 15.06413630318078
STARLINK-1477
1 45754U 20038AA  26061.50427707  .00034281  00000+0  18834-2 0  9998
2 45754  53.0478 245.6107 0001554  85.0669 275.0501 15.13820314315443
STARLINK-1522
1 46027U 20055A   26061.66670139  .00066095  00000+0  41341-2 0  9994
2 46027  53.0635 158.1283 0001065  76.6426 314.5822 15.08821529  5757
STARLINK-1523
1 46028U 20055B   26061.66670139  .00082599  00000+0  49579-2 0  9993
2 46028  53.0678 158.1167 0000625 155.9183 161.9354 15.10207500  5392
STARLINK-1526
1 46029U 20055C   26061.66670139  .00081687  00000+0  48342-2 0  9998
2 46029  53.0707 158.1032 0000366  78.4598 286.4430 15.10727563  5785
STARLINK-1555
1 46032U 20055F   26061.66670139  .00076600  00000+0  47356-2 0  9995
2 46032  53.0622 158.1346 0000899  64.2331   3.6748 15.09172150  5642
STARLINK-1556
1 46033U 20055G   26061.66670139  .00078463  00000+0  47024-2 0  9997
2 46033  53.0688 158.1186 0001867  78.7952  98.5494 15.10290800  5749
STARLINK-1557
1 46034U 20055H   26061.66670139  .00080653  00000+0  46988-2 0  9990
2 46034  53.0730 158.0963 0001955  75.0946  94.5750 15.11301466  5799
STARLINK-1558
1 46035U 20055J   26061.58093324  .00105632  00000+0  68485-2 0  9998
2 46035  53.0576 158.5234 0001144 110.2438 249.8674 15.07236552307829
STARLINK-1560
1 46036U 20055K   26061.56696549  .00024894  00000+0  16763-2 0  9997
2 46036  53.0547 158.5939 0000669  57.9104 302.1950 15.06576591307827
STARLINK-1567
1 46038U 20055M   26061.64452919  .00003675  00000+0  26546-3 0  9994
2 46038  53.0550 158.2467 0001269  83.2796 276.8337 15.06405660307826
STARLINK-1569
1 46039U 20055N   26061.66670139  .00077642  00000+0  47676-2 0  9994
2 46039  53.0639 158.1314 0001576  62.9896  27.1256 15.09412249  5748
STARLINK-1582
1 46043U 20055S   26061.52657879  .00000066  00000+0  23324-4 0  9992
2 46043  53.0544 158.7763 0001447  90.1355 269.9800 15.06397845307806
STARLINK-1591
1 46045U 20055U   26061.66670139  .00084656  00000+0  50239-2 0  9993
2 46045  53.0696 158.1038 0001067 146.3257 138.8368 15.10607262  5796
STARLINK-1525
1 46066U 20055AR  26061.66670139  .00072966  00000+0  46853-2 0  9994
2 46066  53.0529 128.1440 0001381 105.4104 222.5218 15.07806200  5743
STARLINK-1536
1 46070U 20055AV  26061.45193695  .00001782  00000+0  13851-3 0  9994
2 46070  53.0556 129.1114 0001411  90.5500 269.5650 15.06395551308226
STARLINK-1542
1 46073U 20055AY  26061.44456709  .00002653  00000+0  19695-3 0  9994
2 46073  53.0546 129.1442 0001256  82.0021 278.1111 15.06401319308210
STARLINK-1549
1 46074U 20055AZ  26061.49617120  .00000828  00000+0  74495-4 0  9998
2 46074  53.0551 128.9125 0001370  86.9666 273.1480 15.06397065308213
STARLINK-1551
1 46075U 20055BA  26061.45563424  .00000650  00000+0  62553-4 0  9997
2 46075  53.0550 129.0948 0001503  90.0268 270.0893 15.06390263308217
STARLINK-1552
1 46076U 20055BB  26061.61410965  .00003122  00000+0  22832-3 0  9999
2 46076  53.0544 128.3791 0001484 101.2339 258.8817 15.06409445308225
STARLINK-1566
1 46079U 20055BE  26061.49985743  .00005387  00000+0  38023-3 0  9993
2 46079  53.0550 128.8975 0001546  93.8319 266.2847 15.06405016308223
STARLINK-1578
1 46082U 20055BH  26061.44829311 -.00001508  00000+0 -82481-4 0  9991
2 46082  53.0558 129.1252 0000707 106.0377 254.0690 15.06354012308215
STARLINK-1579
1 46083U 20055BJ  26061.48417239  .00001242  00000+0  10232-3 0  9995
2 46083  53.0558 128.9582 0001432  91.2833 268.8320 15.06389205308212
STARLINK-1812
1 47126U 20088E   26061.45017943  .00033660  00000+0  18148-2 0  9997
2 47126  53.0814 332.5553 0003026 105.9670 254.1657 15.14497720290773
STARLINK-2047
1 47355U 21005G   26061.66670139  .00057787  00000+0  30391-2 0  9996
2 47355  53.0902  42.9690 0001025  95.1245 235.9363 15.15130085  5745
STARLINK-2049
1 47356U 21005H   26061.27179052  .00000521  00000+0  53855-4 0  9998
2 47356  53.0553  64.9185 0001425  89.3232 270.7920 15.06391588282342
STARLINK-2050
1 47357U 21005J   26061.38703009  .00000007  00000+0  19339-4 0  9994
2 47357  53.0547  94.8256 0001358  92.1365 267.9780 15.06392404281935
STARLINK-2055
1 47358U 21005K   26061.48094883 -.00000257  00000+0  16097-5 0  9996
2 47358  53.0548  63.9698 0001425  91.6451 268.4701 15.06389933282370
STARLINK-2071
1 47361U 21005N   26061.29021782 -.00000056  00000+0  15136-4 0  9996
2 47361  53.0555  64.8367 0001310  90.6448 269.4691 15.06391746282344
STARLINK-2076
1 47362U 21005P   26061.46806389  .00002805  00000+0  20718-3 0  9994
2 47362  53.0549  94.0388 0001302  99.0666 261.0471 15.06394323281956
STARLINK-2081
1 47366U 21005T   26061.49755015  .00000002  00000+0  19010-4 0  9991
2 47366  53.0552  93.9043 0001574  95.6285 264.4884 15.06399342281951
STARLINK-2082
1 47367U 21005U   26061.39065969  .00001095  00000+0  92389-4 0  9996
2 47367  53.0546  94.3862 0001327  89.2661 270.8480 15.06398104281949
STARLINK-2084
1 47368U 21005V   26061.51597611  .00001227  00000+0  10122-3 0  9996
2 47368  53.0543  93.8235 0001344  92.4244 267.6899 15.06402077281962
STARLINK-2088
1 47371U 21005Y   26061.46438059  .00000507  00000+0  52931-4 0  9999
2 47371  53.0555  94.0561 0001314  95.2718 264.8421 15.06393805281955
STARLINK-2092
1 47373U 21005AA  26061.46069891  .00000586  00000+0  58285-4 0  9990
2 47373  53.0544  94.0717 0001327  95.3667 264.7473 15.06380176281959
STARLINK-2094
1 47375U 21005AC  26061.48650117  .00001279  00000+0  10473-3 0  9997
2 47375  53.0547  93.9536 0001475  93.1056 267.0102 15.06396512281959
STARLINK-2096
1 47376U 21005AD  26061.49017810  .00002895  00000+0  21317-3 0  9990
2 47376  53.0534  93.9390 0001495  90.4828 269.6333 15.06401656281953
STARLINK-2097
1 47377U 21005AE  26061.40908637  .00007306  00000+0  50883-3 0  9990
2 47377  53.0534  94.3038 0001357  81.9401 278.1742 15.06403940281943
STARLINK-2100
1 47380U 21005AH  26061.23861741  .00001520  00000+0  12091-3 0  9990
2 47380  53.0553  65.0688 0001402  90.2599 269.8551 15.06398168282341
STARLINK-2101
1 47381U 21005AJ  26061.38744313  .00001875  00000+0  14472-3 0  9990
2 47381  53.0553  69.4875 0001381  91.8098 268.3050 15.06397542282292
STARLINK-2104
1 47384U 21005AM  26061.28287858 -.00000289  00000+0 -51098-6 0  9996
2 47384  53.0534  65.1089 0001462  95.1884 264.9272 15.06391927282349
STARLINK-2105
1 47385U 21005AN  26061.41185640  .00000862  00000+0  76779-4 0  9994
2 47385  53.0544  64.2893 0001403  87.8602 272.2548 15.06397031282367
STARLINK-2106
1 47386U 21005AP  26061.24229687  .00001782  00000+0  13852-3 0  9990
2 47386  53.0553  65.0525 0001360  97.5867 262.5276 15.06393079282348
STARLINK-2109
1 47388U 21005AR  26061.37592020  .00000682  00000+0  64692-4 0  9997
2 47388  53.0547  94.4536 0001360  87.5119 272.6026 15.06393675281931
STARLINK-2111
1 47390U 21005AT  26061.35012123  .00000519  00000+0  53745-4 0  9995
2 47390  53.0545  94.5675 0001352  86.9691 273.1452 15.06391146281936
STARLINK-2112
1 47391U 21005AU  26061.29295420  .00004151  00000+0  29739-3 0  9993
2 47391  53.0541  64.8248 0001350  93.3160 266.7983 15.06399184282343
STARLINK-2119
1 47397U 21005BA  26061.57865633 -.00000068  00000+0  14346-4 0  9992
2 47397  53.0544  93.5421 0001423  91.7113 268.4039 15.06385144281975
STARLINK-2123
1 47401U 21005BE  26061.30127234  .00001088  00000+0  91922-4 0  9994
2 47401  53.0551  64.7870 0001378  90.4903 269.6244 15.06401053282351
STARLINK-2130
1 47405U 21005BJ  26061.37223146  .00003547  00000+0  25686-3 0  9999
2 47405  53.0537  94.4684 0001439  93.6865 266.4289 15.06402414281931
STARLINK-2134
1 47407U 21005BL  26061.27547117  .00001396  00000+0  11256-3 0  9995
2 47407  53.0549  64.9020 0001478  90.9514 269.1645 15.06404736282347
STARLINK-2135
1 47408U 21005BM  26061.37868191  .00001172  00000+0  97580-4 0  9992
2 47408  53.0552  64.4401 0001363  87.0954 273.0191 15.06396082282364
STARLINK-2131
1 47728U 21017G   26060.81012390  .00000445  00000+0  48799-4 0  9990
2 47728  53.0544 236.9898 0001461  86.6347 273.4809 15.06397458276738
STARLINK-2140
1 47730U 21017J   26061.49581379  .00037934  00000+0  25306-2 0  9996
2 47730  53.0564 248.9122 0000727  77.0513 283.0557 15.06710805276573
STARLINK-2147
1 47736U 21017Q   26061.60997462  .00001476  00000+0  11799-3 0  9993
2 47736  53.0553 233.4006 0001517  87.0127 273.1036 15.06401587276854
STARLINK-2315
1 47789U 21018C   26061.26441552  .00001788  00000+0  13892-3 0  9990
2 47789  53.0538 264.9506 0001256  90.0783 270.0350 15.06400675275762
STARLINK-2334
1 47792U 21018F   26061.27178863 -.00000518  00000+0 -15874-4 0  9992
2 47792  53.0549 264.9172 0001346 105.6553 254.4585 15.06402549275763
STARLINK-2338
1 47793U 21018G   26061.55192258 -.00000234  00000+0  31977-5 0  9995
2 47793  53.0539 263.6595 0001452  92.9583 267.1572 15.06395224275798
STARLINK-2373
1 47796U 21018K   26061.55929794  .00001384  00000+0  11181-3 0  9990
2 47796  53.0540 263.6271 0001384  91.7072 268.4075 15.06393005275807
STARLINK-2379
1 47798U 21018M   26061.57036618  .00008333  00000+0  57757-3 0  9998
2 47798  53.0524 263.5774 0001406  89.2108 270.9042 15.06404511275802
STARLINK-2380
1 47799U 21018N   26061.56666331  .00000664  00000+0  63459-4 0  9995
2 47799  53.0535 263.5949 0001449  90.4345 269.6810 15.06397079275799
STARLINK-2381
1 47800U 21018P   26061.52245468 -.00002953  00000+0 -17953-3 0  9990
2 47800  53.0543 263.7937 0001448 101.4598 258.6554 15.06372768275793
STARLINK-2386
1 47805U 21018U   26061.58143408 -.00000090  00000+0  12854-4 0  9997
2 47805  53.0538 263.7687 0001262  96.1247 263.9886 15.06396269275800
STARLINK-2399
1 47816U 21018AF  26061.62747537 -.00000687  00000+0 -27214-4 0  9996
2 47816  53.0549 283.3202 0001037  93.8719 266.2388 15.06399486275529
STARLINK-2408
1 47823U 21018AN  26061.63391440  .00001369  00000+0  11078-3 0  9999
2 47823  53.0547 283.2823 0001516  98.0040 262.1121 15.06400787275537
STARLINK-2409
1 47824U 21018AP  26060.89400244  .00006010  00000+0  42201-3 0  9990
2 47824  53.0527 286.6152 0001327  87.8876 272.2265 15.06400283275410
STARLINK-2413
1 47827U 21018AS  26061.55471738  .00001072  00000+0  90890-4 0  9994
2 47827  53.0545 273.8892 0001356  95.6954 264.4189 15.06387169275716
STARLINK-2420
1 47831U 21018AW  26061.57173421  .00002080  00000+0  15855-3 0  9996
2 47831  53.0532 268.5706 0001379  99.8885 260.2260 15.06393494275785
STARLINK-2423
1 47833U 21018AY  26061.02299030  .00000321  00000+0  40454-4 0  9993
2 47833  53.0542 286.0331 0001709  96.2090 263.9094 15.06397720275492
STARLINK-2427
1 47837U 21018BC  26061.52611814 -.00000314  00000+0 -21770-5 0  9995
2 47837  53.0532 263.7762 0001460  88.7854 271.3302 15.06388181275804
STARLINK-2432
1 47840U 21018BF  26061.57772064 -.00000151  00000+0  87750-5 0  9997
2 47840  53.0542 263.5424 0001468  90.8535 269.2622 15.06397203275806
STARLINK-2433
1 47841U 21018BG  26061.57403580  .00000412  00000+0  46545-4 0  9997
2 47841  53.0537 263.5595 0001455  91.3250 268.7906 15.06395095275802
STARLINK-2453
1 47845U 21018BL  26061.35104037  .00000996  00000+0  85775-4 0  9997
2 47845  53.0542 284.5617 0001474  93.2648 266.8510 15.06399208275498
STARLINK-2330
1 47874U 21021Q   26061.66670139  .00013153  00000+0  82248-3 0  9998
2 47874  53.0655 248.1324 0000972 102.2094 295.4267 15.09739516  5754
STARLINK-2343
1 47884U 21021AA  26061.66670139  .01380751  00000+0  68104-1 0  9994
2 47884  53.0885 313.0148 0002378  96.0166  64.2954 15.14470572  5809
STARLINK-2405
1 47919U 21021BM  26061.66670139  .00105190  00000+0  54797-2 0  9998
2 47919  53.0889 312.9825 0002414 101.1706  96.7110 15.15148163  5792
STARLINK-2273
1 47993U 21024S   26061.66670139  .00082099  00000+0  46111-2 0  9996
2 47993  53.0777 328.0501 0001638 113.9338 144.6730 15.12610536  5749
STARLINK-2270
1 48000U 21024Z   26061.56916036  .00039380  00000+0  26274-2 0  9997
2 48000  53.0539 273.7822 0001494  75.8398 284.2757 15.06688542274764
STARLINK-2298
1 48022U 21024AX  26061.66670139  .00077996  00000+0  48543-2 0  9991
2 48022  53.0628   3.4085 0002178  89.1841  92.7179 15.08917199  5797
STARLINK-2292
1 48023U 21024AY  26061.55745329  .00001548  00000+0  12284-3 0  9998
2 48023  53.0561   3.6360 0001496  83.9003 276.2156 15.06395689273553
STARLINK-2299
1 48029U 21024BE  26061.66670139  .00086965  00000+0  53327-2 0  9990
2 48029  53.0657   3.1130 0001398 104.7484 265.8751 15.09400366  5797
STARLINK-2418
1 48097U 21027F   26061.62928763  .00004971  00000+0  35213-3 0  9995
2 48097  53.0555 183.3144 0001392  97.7281 262.3866 15.06429573271630
STARLINK-2430
1 48100U 21027J   26061.62194962 -.00001095  00000+0 -54635-4 0  9992
2 48100  53.0549 183.3464 0001075  78.4002 281.7108 15.06394552271630
STARLINK-2440
1 48105U 21027P   26061.66670139  .01549656  00000+0  78963-1 0  9992
2 48105  53.0831 133.0586 0001929  84.7072 103.0812 15.13448649  5752
STARLINK-2442
1 48106U 21027Q   26061.62564347  .00000250  00000+0  35674-4 0  9998
2 48106  53.0555 183.3403 0001223  94.1195 265.9934 15.06386992271639
STARLINK-2443
1 48107U 21027R   26061.64038186  .00000422  00000+0  47224-4 0  9993
2 48107  53.0559 183.2651 0001263  83.9719 276.1414 15.06397613271639
STARLINK-2455
1 48117U 21027AB  26061.62469083 -.00003643  00000+0 -22583-3 0  9996
2 48117  53.0553 183.3246 0001144  95.5317 264.5803 15.06397853271635
STARLINK-2459
1 48119U 21027AD  26061.63206979  .00000458  00000+0  49674-4 0  9992
2 48119  53.0567 183.2927 0001398  93.2067 266.9082 15.06389882271622
STARLINK-2464
1 48123U 21027AH  26061.61826523 -.00000878  00000+0 -40079-4 0  9996
2 48123  53.0551 183.3635 0001218  95.9655 264.1473 15.06390113271634
STARLINK-2467
1 48126U 21027AL  26061.58507811 -.00012947  00000+0 -85195-3 0  9998
2 48126  53.0551 183.5123 0001705  52.3817 307.7326 15.06394587271639
STARLINK-2473
1 48131U 21027AR  26061.57772237  .00006596  00000+0  46130-3 0  9996
2 48131  53.0552 183.5451 0001506  87.1564 272.9598 15.06401709271622
STARLINK-2480
1 48137U 21027AX  26061.58877566 -.00000188  00000+0  62788-5 0  9995
2 48137  53.0563 183.4679 0001548  87.3588 272.7579 15.06395241271625
STARLINK-2482
1 48139U 21027AZ  26061.60720645  .00001151  00000+0  96162-4 0  9997
2 48139  53.0558 183.4137 0001786  90.3826 269.7368 15.06393349271633
STARLINK-2485
1 48142U 21027BC  26061.60352690  .00000841  00000+0  75373-4 0  9998
2 48142  53.0554 183.4295 0001464  96.8544 263.2611 15.06393037271633
STARLINK-2487
1 48144U 21027BE  26061.61091083 -.00001543  00000+0 -84759-4 0  9997
2 48144  53.0549 183.3959 0001093  90.3004 269.8110 15.06382066271628
STARLINK-2492
1 48149U 21027BK  26061.59246520  .00004244  00000+0  30360-3 0  9994
2 48149  53.0557 183.4796 0001345  83.4776 276.6366 15.06402614271622
STARLINK-2493
1 48150U 21027BL  26061.59615629  .00000265  00000+0  36698-4 0  9996
2 48150  53.0566 183.4639 0001495  82.7568 277.3591 15.06390371271632
STARLINK-2503
1 48151U 21027BM  26061.59984036  .00000144  00000+0  28565-4 0  9998
2 48151  53.0577 183.4474 0001561  87.2237 272.8930 15.06393207271637
STARLINK-2567
1 48276U 21036A   26061.44181625  .00004469  00000+0  31876-3 0  9995
2 48276  53.0553  79.1566 0001365  83.3321 276.7823 15.06391865267711
STARLINK-2569
1 48277U 21036B   26061.66670139  .01440341  00000+0  73938-1 0  9990
2 48277  53.0821  43.0672 0002276  87.8651  88.2786 15.12904105  5791
STARLINK-2565
1 48280U 21036E   26061.59937902  .00000634  00000+0  61447-4 0  9991
2 48280  53.0545 128.4496 0001406  98.2012 261.9136 15.06392982267034
STARLINK-2524
1 48304U 21036AE  26061.48373932  .00008812  00000+0  60996-3 0  9996
2 48304  53.0547 123.9689 0001673  91.6118 268.5062 15.06386392267081
STARLINK-2519
1 48305U 21036AF  26061.46905456  .00002190  00000+0  16587-3 0  9997
2 48305  53.0548 124.6144 0001449  92.4831 267.6324 15.06401694267072
STARLINK-2523
1 48306U 21036AG  26061.54270754  .00005050  00000+0  35778-3 0  9994
2 48306  53.0536 123.7044 0001311  81.4198 278.6939 15.06389632267094
STARLINK-2536
1 48310U 21036AL  26061.66670139  .00968353  00000+0  50876-1 0  9991
2 48310  53.0809 123.0755 0001130  79.7234 353.8137 15.12751866  5752
STARLINK-2506
1 48315U 21036AR  26061.44318120  .00001530  00000+0  12159-3 0  9990
2 48315  53.0553 124.1507 0001456  90.8303 269.2853 15.06401506267078
STARLINK-2507
1 48316U 21036AS  26061.43950693  .00002124  00000+0  16148-3 0  9999
2 48316  53.0543 124.1664 0001327  92.9644 267.1497 15.06395526267075
STARLINK-2509
1 48318U 21036AU  26061.66670139  .00114434  00000+0  69573-2 0  9997
2 48318  53.0630 133.1346 0002030 105.7989 120.1717 15.09542159  5799
STARLINK-2512
1 48319U 21036AV  26061.66670139  .01557389  00000+0  80961-1 0  9992
2 48319  53.0800 133.0666 0000894 118.8766 164.2337 15.12710658  5799
STARLINK-2029
1 48320U 21036AW  26061.66670139  .00124040  00000+0  75874-2 0  9995
2 48320  53.0606 133.1412 0001595 118.2108 144.2406 15.09263020  5795
STARLINK-2457
1 48321U 21036AX  26061.66670139  .01554907  00000+0  80864-1 0  9990
2 48321  53.0800 133.0801 0000423 129.7675 188.0375 15.12699049  5696
STARLINK-2515
1 48323U 21036AZ  26061.66670139  .01536009  00000+0  80060-1 0  9993
2 48323  53.0806 133.0771 0000317  74.8277 282.3591 15.12655028  5743
STARLINK-2495
1 48325U 21036BB  26057.75263352  .00004377  00000+0  31247-3 0  9997
2 48325  53.0556 150.7160 0001222  85.4413 274.6716 15.06412293266381
STARLINK-2498
1 48326U 21036BC  26061.66670139  .00120561  00000+0  66201-2 0  9999
2 48326  53.0788 133.0759 0001328  51.9902   7.0759 15.13185340  5806
STARLINK-2502
1 48327U 21036BD  26061.66670139  .01544548  00000+0  74532-1 0  9991
2 48327  53.0894 133.0206 0001412  69.6361  40.0942 15.14879670  5809
STARLINK-2504
1 48328U 21036BE  26061.66670139  .01558320  00000+0  80879-1 0  9996
2 48328  53.0801 133.0747 0001756  58.1349  40.5834 15.12770303  5804
STARLINK-2510
1 48329U 21036BF  26061.66670139  .01562673  00000+0  77615-1 0  9997
2 48329  53.0869 133.0349 0001908  73.5956  67.4906 15.14339231  5802
STARLINK-2518
1 48333U 21036BK  26061.66670139  .01576212  00000+0  78741-1 0  9997
2 48333  53.0859 133.0404 0001636 101.9482 115.6663 15.14106051  5758
STARLINK-2470
1 48334U 21036BL  26061.66670139  .01574414  00000+0  78917-1 0  9995
2 48334  53.0856 133.0438 0001593 103.9798 131.8271 15.13988290  5754
STARLINK-2588
1 48398U 21038AX  26061.55210177  .00035895  00000+0  19339-2 0  9995
2 48398  53.0758  11.3330 0005863  87.6200 272.5464 15.14483115267488
STARLINK-2563
1 48410U 21038BK  26061.66670139  .01513910  00000+0  82117-1 0  9993
2 48410  53.0736 328.1020 0001832  83.2312  46.5739 15.11262394  5746
STARLINK-2505
1 48411U 21038BL  26061.46530022  .00002204  00000+0  16679-3 0  9998
2 48411  53.0530 324.0510 0001549  84.1270 275.9896 15.06402571266924
STARLINK-2581
1 48412U 21038BM  26061.41744483  .00003750  00000+0  27048-3 0  9991
2 48412  53.0533 324.7004 0001181  87.5576 272.5548 15.06398661266911
STARLINK-2700
1 48431U 21040D   26061.63942008  .00003033  00000+0  22238-3 0  9992
2 48431  53.0581 183.2712 0001490  91.8182 268.2978 15.06409268265984
STARLINK-2680
1 48432U 21040E   26061.62061655  .00000900  00000+0  79311-4 0  9997
2 48432  53.0572 178.7501 0001242  92.9362 267.1769 15.06397413266049
STARLINK-2699
1 48433U 21040F   26061.63303824 -.00001513  00000+0 -82652-4 0  9991
2 48433  53.0564 183.5777 0001108  86.8734 273.2381 15.06409611265979
STARLINK-2642
1 48437U 21040K   26061.66670139  .01479007  00000+0  74938-1 0  9995
2 48437  53.0838 223.0596 0002068  90.3737  79.6904 15.13284888  5791
STARLINK-2681
1 48465U 21040AP  26061.66670139  .01490028  00000+0  83040-1 0  9996
2 48465  53.0678 223.1243 0001311 122.3592 172.3394 15.09801937  5798
STARLINK-2687
1 48466U 21040AQ  26061.66670139  .01322113  00000+0  69441-1 0  9995
2 48466  53.0794 223.0745 0001037  84.4005 317.4714 15.12344063  5453
STARLINK-2659
1 48467U 21040AR  26061.66670139  .01391518  00000+0  71449-1 0  9992
2 48467  53.0819 223.0617 0001800 115.7547 153.8874 15.13004548  5740
STARLINK-2685
1 48468U 21040AS  26061.66670139  .01420593  00000+0  78841-1 0  9992
2 48468  53.0693 223.1194 0000603 124.6374 212.8170 15.10113156  5792
STARLINK-2661
1 48469U 21040AT  26061.66670139  .01478422  00000+0  76631-1 0  9992
2 48469  53.0788 223.0784 0001278 126.6015 153.7174 15.12464400  5740
STARLINK-2684
1 48471U 21040AV  26061.66670139  .01385544  00000+0  69961-1 0  9995
2 48471  53.0854 223.0454 0000440 125.7873 232.3471 15.13614032  5791
STARLINK-2722
1 48472U 21040AW  26061.66670139 -.00018789  00000+0 -11906-2 0  9998
2 48472  53.0599 223.1065 0001390 107.4385 317.0209 15.08059407  5644
STARLINK-2658
1 48473U 21040AX  26061.66670139  .01461541  00000+0  74841-1 0  9992
2 48473  53.0812 223.0659 0001607 112.5382 134.2542 15.12942178  5792
STARLINK-2697
1 48474U 21040AY  26061.66670139  .01448001  00000+0  74192-1 0  9998
2 48474  53.0816 223.0651 0001313  66.6264   0.3489 15.12950248  5757
STARLINK-2728
1 48478U 21040BC  26061.66670139  .01493711  00000+0  74123-1 0  9994
2 48478  53.0864 223.0402 0001966  98.5944 102.0514 15.13997937  5791
STARLINK-2145
1 48555U 21041C   26061.61550570 -.00000046  00000+0  15824-4 0  9993
2 48555  53.0578 173.3777 0001469  91.0748 269.0410 15.06383973263997
STARLINK-2151
1 48556U 21041D   26061.60444342  .00002038  00000+0  15569-3 0  9999
2 48556  53.0564 173.4252 0001506  91.6397 268.4765 15.06397053263990
STARLINK-2214
1 48566U 21041P   26061.61178320  .00006147  00000+0  43095-3 0  9991
2 48566  53.0566 173.3654 0001161  84.3123 275.7998 15.06421120263993
STARLINK-2220
1 48570U 21041T   26061.58602739  .00026831  00000+0  18119-2 0  9998
2 48570  53.0554 173.5075 0001325  87.6442 272.4699 15.06428422263989
STARLINK-2222
1 48572U 21041V   26061.58970404  .00001648  00000+0  12953-3 0  9997
2 48572  53.0551 173.4926 0001209  86.0434 274.0693 15.06395611263993
STARLINK-2225
1 48574U 21041X   26061.66670139  .01538689  00000+0  77567-1 0  9991
2 48574  53.0847 133.1337 0000928  55.1850 338.3219 15.13850898  5799
STARLINK-2235
1 48581U 21041AE  26061.47774398  .00000090  00000+0  24944-4 0  9993
2 48581  53.0551 129.0063 0001414  95.4132 264.7018 15.06392884264615
STARLINK-2236
1 48582U 21041AF  26061.59201898  .00001475  00000+0  11786-3 0  9994
2 48582  53.0549 128.6459 0001402  91.1471 268.9679 15.06402874264624
STARLINK-2237
1 48583U 21041AG  26061.59707492  .00001403  00000+0  11306-3 0  9995
2 48583  53.0563 173.4584 0001616 100.1431 259.9741 15.06393832263994
STARLINK-2238
1 48584U 21041AH  26061.66670139  .00065815  00000+0  39524-2 0  9999
2 48584  53.0551 173.1254 0001917  70.1828  98.7598 15.10306960  5795
STARLINK-2241
1 48586U 21041AK  26061.57497522  .00003600  00000+0  26052-3 0  9991
2 48586  53.0555 173.5581 0001479  73.0226 287.0925 15.06389434263981
STARLINK-2249
1 48592U 21041AR  26061.56761460  .00000515  00000+0  53480-4 0  9990
2 48592  53.0574 173.8235 0001300  93.1543 266.9595 15.06394800263988
STARLINK-2251
1 48594U 21041AT  26061.51506827  .00003485  00000+0  25274-3 0  9999
2 48594  53.0552 143.9154 0001423  94.8091 265.3061 15.06402885264408
STARLINK-2252
1 48595U 21041AU  26061.60076297  .00000580  00000+0  57841-4 0  9992
2 48595  53.0561 173.4428 0001322  91.1702 268.9439 15.06390157265269
STARLINK-2714
1 48603U 21041BC  26061.60626912  .00006580  00000+0  46022-3 0  9991
2 48603  53.0542 143.4187 0001189  80.0658 280.0465 15.06398908265687
STARLINK-2757
1 48604U 21041BD  26061.60813389  .00000594  00000+0  58761-4 0  9991
2 48604  53.0570 173.4112 0001391  91.9497 268.1651 15.06395870265260
STARLINK-2726
1 48662U 21044AA  26061.48558015  .00000267  00000+0  36805-4 0  9998
2 48662  53.0573 143.9611 0001481  98.4174 261.6983 15.06390084262767
STARLINK-2666
1 48666U 21044AE  26061.50406751 -.00000200  00000+0  54731-5 0  9991
2 48666  53.0554 144.3476 0001064  99.7940 260.3169 15.06388852262757
STARLINK-2735
1 48667U 21044AF  26061.60716065  .00009077  00000+0  62669-3 0  9992
2 48667  53.0572 143.4148 0001372  40.7945 319.3146 15.06447052262788
STARLINK-2745
1 48671U 21044AK  26061.62199436  .00000064  00000+0  23171-4 0  9999
2 48671  53.0554 143.6559 0001326  95.7777 264.3363 15.06398441262779
STARLINK-2711
1 48673U 21044AM  26061.51874362  .00001689  00000+0  13225-3 0  9999
2 48673  53.0553 143.8125 0001146  84.8346 275.2774 15.06395722262767
STARLINK-2712
1 48674U 21044AN  26061.52611368  .00013509  00000+0  92315-3 0  9997
2 48674  53.0550 143.8951 0001298  91.7408 268.3730 15.06436777262767
STARLINK-2746
1 48676U 21044AQ  26061.50769047  .00000647  00000+0  62345-4 0  9995
2 48676  53.0543 143.8629 0001091  78.1390 281.9721 15.06390681262767
STARLINK-2648
1 48679U 21044AT  26061.56297043  .00002459  00000+0  18393-3 0  9992
2 48679  53.0552 143.6121 0001327  87.0951 273.0190 15.06403580262775
STARLINK-3694
1 51957U 22025B   26061.30530939  .00000020  00000+0  20260-4 0  9990
2 51957  53.0546  69.0196 0001204  87.6828 272.4299 15.06393694219732
STARLINK-3704
1 51959U 22025D   26061.30901728  .00014695  00000+0  10047-2 0  9993
2 51959  53.0547  68.9781 0001209 102.6031 257.5094 15.06350586219732
STARLINK-3691
1 51960U 22025E   26061.30161952  .00001809  00000+0  14035-3 0  9997
2 51960  53.0549  69.0143 0001446  97.2267 262.8887 15.06393424219730
STARLINK-3696
1 51965U 22025K   26061.29794531 -.00002422  00000+0 -14379-3 0  9990
2 51965  53.0562  69.0274 0002533  99.4435 260.6841 15.06388611219732
STARLINK-3699
1 51966U 22025L   26061.27074495  .00001207  00000+0  99885-4 0  9993
2 51966  53.0550  64.1329 0001403  91.7103 268.4047 15.06397218219804
STARLINK-3677
1 51970U 22025Q   26061.26706778  .00001733  00000+0  13524-3 0  9992
2 51970  53.0549  64.2242 0001406  86.2591 273.8559 15.06400147219809
STARLINK-3671
1 51972U 22025S   26061.32235627  .00000737  00000+0  68382-4 0  9997
2 51972  53.0553  63.9571 0001308  94.2654 265.8484 15.06397558219817
STARLINK-3679
1 51973U 22025T   26061.26337378  .00000695  00000+0  65574-4 0  9990
2 51973  53.0547  64.1644 0001282  93.1315 266.9821 15.06395097219800
STARLINK-3672
1 51974U 22025U   26061.31867190  .00000180  00000+0  30994-4 0  9994
2 51974  53.0547  63.9737 0001301  89.1476 270.9662 15.06394449219804
